LEMUR-2-ROUNDTRIPPER    
1 62711U 25009DG  26186.19100505  .00016840  00000+0  12174-2 0  9992
2 62711  97.7221 268.8463 0004579  87.8506 272.3244 15.04109103 80335
LEMUR-2-MYNAMEISJEFF    
1 62712U 25009DH  26186.18943619  .00016572  00000+0  11985-2 0  9994
2 62712  97.7271 269.2366 0003623 121.7558 238.4021 15.04101211 80330
LEMUR-2-LEIA-PHILIP     
1 63246U 25052AN  26186.24658311  .00002666  00000+0  23440-3 0  9993
2 63246  97.6815  77.8917 0004680 146.1109 214.0413 14.97370821 71373
LEMUR-2-LIA-MARTIN      
1 63248U 25052AQ  26186.24523326  .00008990  00000+0  76625-3 0  9991
2 63248  97.6859  78.3919 0005018 115.4192 244.7550 14.97964934 71385
LEMUR-2-DELOITTE-1      
1 63259U 25052BB  26186.29088936  .00006501  00000+0  55909-3 0  9999
2 63259  97.6885  78.7686 0002298  65.6875 294.4587 14.97735353 71408
LEMUR-2-EMERSONROSE     
1 63261U 25052BD  26186.18150072  .00007328  00000+0  60575-3 0  9994
2 63261  97.6867  79.2519 0002629  74.7094 285.4420 14.99227224 71438
LEMUR-2-MARACHE-FRAN    
1 63262U 25052BE  26186.21110920  .00008333  00000+0  66966-3 0  9994
2 63262  97.6875  79.6354 0004393 300.0229  60.0558 15.00269174 71469
LEMUR-2-THEFALCONER     
1 63264U 25052BG  26186.25313051  .00007097  00000+0  61313-3 0  9997
2 63264  97.6840  78.3312 0001019  28.6348 331.4930 14.97522093 71398
LEMUR-2-UNTITLED-SC     
1 63351U 25061A   26186.00520406  .00005692  00000+0  31952-3 0  9996
2 63351  97.5650 161.2388 0018113 198.3571 161.7008 15.13600053 70283
LEMUR-2-ESPERANZA       
1 63352U 25061B   26186.37788584  .00007510  00000+0  41913-3 0  9999
2 63352  97.5655 161.7064 0017779 195.9184 164.1491 15.13705012 70346
LEMUR-2-KREMPEL-BRO2    
1 63353U 25061C   26186.00309338  .00005664  00000+0  31318-3 0  9992
2 63353  97.5704 161.8905 0018879 190.0662 170.0194 15.14131233 70307
LEMUR-2-THERMORAPTOR    
1 63354U 25061D   26186.38070466  .00005064  00000+0  27979-3 0  9993
2 63354  97.5707 162.3450 0018691 187.3934 172.7024 15.14217282 70361
LEMUR-2-NEUROSPICY      
1 63355U 25061E   26185.88844190  .00005998  00000+0  32991-3 0  9997
2 63355  97.5633 161.4679 0016383 192.3209 167.7625 15.14329215 70293
LEMUR-2-TILLINFINITY    
1 63356U 25061F   26186.37924641  .00005122  00000+0  27750-3 0  9999
2 63356  97.5620 162.2589 0018031 178.7002 181.4280 15.14918475 70393
LEMUR-2-KREMPEL-BRO1    
1 63357U 25061G   26185.89262363  .00005956  00000+0  32377-3 0  9998
2 63357  97.5621 161.6860 0018573 182.0507 178.0652 15.14720504 70310
LEMUR-2-LANGER2SPACE    
1 63358U 25061H   26185.98874644  .00005259  00000+0  28904-3 0  9997
2 63358  97.5628 161.5885 0016329 189.9761 170.1149 15.14416285 70311
LEMUR-2-BALTO           
1 63395U 25052BH  26186.26243178  .00009307  00000+0  74654-3 0  9993
2 63395  97.6924  79.6648 0005789   5.9502 354.1790 15.00297759 71478
LEMUR-2-KRISH           
1 64561U 25135AK  26186.26399295  .00008948  00000+0  79449-3 0  9990
2 64561  97.7758 301.0176 0001642 104.1888 255.9516 14.96384157 56628
LEMUR-2-HUBBLE-4        
1 64565U 25135AP  26186.29359763  .00001802  00000+0  17583-3 0  9996
2 64565  97.7712 299.9869 0001767 191.9350 168.1828 14.93666828 56572
LEMUR-2-SEJONG-2        
1 64586U 25135BL  26186.62236267  .00004722  00000+0  41674-3 0  9991
2 64586  97.7713 301.5199 0002972 261.4085  98.6800 14.96865231 56703
LEMUR-2-HUBBLE-5        
1 64840U 25135BT  26186.30592850  .00001787  00000+0  17213-3 0  9992
2 64840  97.7733 300.6576 0004082 279.5658  80.5101 14.94193167 56611
LEMUR-2-KARENDARRELL    
1 64841U 25135BU  26186.32662675  .00012904  00000+0  10290-2 0  9998
2 64841  97.7699 302.5080 0011433 136.4587 223.7541 15.00403156 56736
LEMUR-2-LUCILLE-ROSE    
1 65403U 25135BV  26186.30004763  .00012813  00000+0  10211-2 0  9991
2 65403  97.7726 302.5154 0013592 219.7709 140.2519 15.00405199 51353
LEMUR-2-AFFIE-WAUWIE    
1 66295U 25248C   26186.56345075  .00027095  00000+0  98110-3 0  9991
2 66295  45.3925  15.3744 0008384 201.1291 158.9253 15.27968008 37404
LEMUR-2-DEANANDMAEVE    
1 66678U 25276N   26186.15689710  .00011857  00000+0  55357-3 0  9994
2 66678  97.4199 259.3362 0004313 301.8123  58.2692 15.19969748 33145
LEMUR-2-STAS-GORBUK     
1 66686U 25276W   26186.57083552  .00008164  00000+0  38656-3 0  9991
2 66686  97.4234 259.7964 0003504 298.0298  62.0582 15.19589206 33202
LEMUR-2-TEODOR          
1 66768U 25276DG  26186.20555172  .00010159  00000+0  45744-3 0  9997
2 66768  97.4140 259.6964 0002349  98.3260 261.8243 15.21261851 33180
LEMUR-2-LAILA           
1 66776U 25276DQ  26186.50566773  .00008520  00000+0  38167-3 0  9998
2 66776  97.4164 260.1243 0002870 109.0476 251.1071 15.21488780 33239
LEMUR-2-CELIJO-SB-PK    
1 66781U 25276DW  26186.18029440  .00011915  00000+0  95586-3 0  9993
2 66781  97.5202 256.3655 0007554  88.8480 271.3609 15.00210002 25325
